# iridium-NEXT TLE catalogue - fetched 2026-09-28T23:37 UTC from CelesTrak
# 80 objects. Source: https://celestrak.org/NORAD/elements/supplemental/sup-gp.php?FILE=iridium&FORMAT=tle
IRIDIUM 106             
1 41917C 17003A   26271.72395833  .00003499  00000+0  12511-2 0  2710
2 41917  86.3974  45.2356 0001902  94.5428  20.2558 14.34212547    16
IRIDIUM 103             
1 41918C 17003B   26271.70729167  .00002942  00000+0  10520-2 0  2710
2 41918  86.3974  45.1421 0002270  90.8044   3.4599 14.34212410    18
IRIDIUM 109             
1 41919C 17003C   26271.71701389  .00003341  00000+0  11945-2 0  2714
2 41919  86.3975  45.1992 0002213  94.1709  17.4244 14.34213482    17
IRIDIUM 102             
1 41920C 17003D   26271.68715278  .00001188  00000+0  42463-3 0  2711
2 41920  86.3974  45.1331 0002079  96.2719  24.9756 14.34214688    19
IRIDIUM 105             
1 41921C 17003E   26271.74201389 -.00002007  00000+0 -71753-3 0  2719
2 41921  86.4030  13.5730 0002474  97.0770 160.9231 14.34220552    17
IRIDIUM 104             
1 41922C 17003F   26271.55451389 -.00004586  00000+0 -16399-2 0  2714
2 41922  86.3974  45.2326 0002424  92.4828 358.9000 14.34220531    15
IRIDIUM 114             
1 41923C 17003G   26271.70451389  .00002773  00000+0  99160-3 0  2714
2 41923  86.3975  45.1529 0002210  92.8113  19.8310 14.34213381    17
IRIDIUM 108             
1 41924C 17003H   26271.69062500  .00004404  00000+0  15746-2 0  2716
2 41924  86.4025  13.4782 0002182  98.2221 156.7849 14.34213066    10
IRIDIUM 112             
1 41925C 17003J   26271.69131944  .00001824  00000+0  65209-3 0  2719
2 41925  86.3971  44.9956 0002182  94.3672  15.6518 14.34213669    14
IRIDIUM 111             
1 41926C 17003K   26271.74895833  .00003801  00000+0  13592-2 0  2714
2 41926  86.3973  45.0445 0002114  93.3108  19.5701 14.34213067    19
IRIDIUM 113             
1 42803C 17039A   26271.72673611 -.00001373  00000+0 -49084-3 0  2714
2 42803  86.3909 278.8916 0002446  91.7442   9.8620 14.34218114    13
IRIDIUM 123             
1 42804C 17039B   26271.70590278 -.00001725  00000+0 -61674-3 0  2710
2 42804  86.3950 310.3870 0002137  92.2999  47.7715 14.34220022    18
IRIDIUM 120             
1 42805C 17039C   26271.72048611 -.00001402  00000+0 -50143-3 0  2713
2 42805  86.3897 278.6630 0002238  92.7773   9.3142 14.34218277    13
IRIDIUM 115             
1 42806C 17039D   26271.72395833 -.00001478  00000+0 -43996-3 0  2716
2 42806  86.4435 278.8044 0002256  87.7725  42.7863 14.43281600    16
IRIDIUM 118             
1 42807C 17039E   26271.73784722 -.00002137  00000+0 -76401-3 0  2717
2 42807  86.3950 310.3713 0002324  95.9922  45.2600 14.34221118    14
IRIDIUM 117             
1 42808C 17039F   26271.69062500 -.00002110  00000+0 -75438-3 0  2716
2 42808  86.3949 310.3476 0002274  93.1961  66.2273 14.34220393    19
IRIDIUM 126             
1 42809C 17039G   26271.71215278 -.00001705  00000+0 -60956-3 0  2710
2 42809  86.3951 310.3915 0002276  92.7966  46.7982 14.34219703    16
IRIDIUM 124             
1 42810C 17039H   26271.76284722  .00001355  00000+0  40330-3 0  2710
2 42810  86.4455 247.0266 0002396  86.7247 229.4112 14.43277007    17
IRIDIUM 128             
1 42811C 17039J   26271.70868056  .00000851  00000+0  30418-3 0  2719
2 42811  86.4013 341.8975 0002161  97.0389  72.4339 14.34217458    11
IRIDIUM 121             
1 42812C 17039K   26271.73159722 -.00001781  00000+0 -63690-3 0  2719
2 42812  86.3952 310.4119 0002235  96.1719  45.5719 14.34219677    12
IRIDIUM 133             
1 42955C 17061A   26271.74062500  .00000140  00000+0  50205-4 0  2715
2 42955  86.4015 342.0045 0002130  96.5775  74.1072 14.34217331    15
IRIDIUM 100             
1 42956C 17061B   26271.73437500  .00000222  00000+0  79303-4 0  2712
2 42956  86.4013 341.9233 0002164  96.9174  74.2216 14.34218732    12
IRIDIUM 122             
1 42957C 17061C   26271.71840278  .00000969  00000+0  34658-3 0  2712
2 42957  86.4013 341.9304 0002290  94.2344 158.1266 14.34217683    13
IRIDIUM 129             
1 42958C 17061D   26271.72812500  .00000307  00000+0  10975-3 0  2713
2 42958  86.4014 341.9945 0002408  96.7494  74.8682 14.34218372    12
IRIDIUM 119             
1 42959C 17061E   26271.75243056 -.00000751  00000+0 -26867-3 0  2713
2 42959  86.4015 341.9806 0002311  94.6707   6.0088 14.34221172    16
IRIDIUM 107             
1 42960C 17061F   26271.71493056  .00000419  00000+0  14984-3 0  2714
2 42960  86.4015 342.0181 0002131  91.6472  77.3437 14.34218105    13
IRIDIUM 132             
1 42961C 17061G   26271.72118056  .00000438  00000+0  15671-3 0  2715
2 42961  86.4015 341.9943 0002222  96.1237  72.3879 14.34218442    17
IRIDIUM 136             
1 42962C 17061H   26271.75312500 -.00000410  00000+0 -14644-3 0  2710
2 42962  86.4016 341.9882 0002218  97.2380  72.4683 14.34218701    19
IRIDIUM 139             
1 42963C 17061J   26271.75937500 -.00000921  00000+0 -32945-3 0  2715
2 42963  86.4017 342.0491 0002214  96.0280  73.2001 14.34219768    18
IRIDIUM 125             
1 42964C 17061K   26271.74687500 -.00000543  00000+0 -19403-3 0  2711
2 42964  86.4019 342.1174 0002360  84.7107  85.4760 14.34219085    13
IRIDIUM 135             
1 43070C 17083A   26271.70590278 -.00001126  00000+0 -40263-3 0  2711
2 43070  86.3903 278.7303 0002320  92.1252   0.1611 14.34218857    16
IRIDIUM 138             
1 43071C 17083B   26271.73298611 -.00001138  00000+0 -40672-3 0  2718
2 43071  86.3916 278.4301 0002448  89.9373  11.1919 14.34217867    18
IRIDIUM 116             
1 43072C 17083C   26271.70104167 -.00001030  00000+0 -36817-3 0  2715
2 43072  86.3902 278.7170 0002050  94.5914   5.3397 14.34217906    12
IRIDIUM 130             
1 43073C 17083D   26271.73993056 -.00001285  00000+0 -45931-3 0  2711
2 43073  86.3910 278.9864 0002141  90.1693  14.0690 14.34217602    17
IRIDIUM 151             
1 43074C 17083E   26271.71979167 -.00001397  00000+0 -49964-3 0  2711
2 43074  86.3904 278.7693 0002285  92.7327  38.4906 14.34218697    15
IRIDIUM 134             
1 43075C 17083F   26271.75243056  .00000098  00000+0  35008-4 0  2717
2 43075  86.3905 278.7651 0002218  91.0753  12.2019 14.34216687    14
IRIDIUM 137             
1 43076C 17083G   26271.70034722 -.00001196  00000+0 -42777-3 0  2713
2 43076  86.3907 278.8819 0002171 100.4042  28.6715 14.34217922    15
IRIDIUM 141             
1 43077C 17083H   26271.75868056  .00000492  00000+0  17580-3 0  2714
2 43077  86.3902 278.6821 0002308  91.5397  11.2631 14.34216140    13
IRIDIUM 153             
1 43078C 17083J   26271.71145833  .00001364  00000+0  48768-3 0  2713
2 43078  86.3932 247.1645 0002490  86.4820  19.4757 14.34212044    16
IRIDIUM 131             
1 43079C 17083K   26271.74618056 -.00000628  00000+0 -22459-3 0  2712
2 43079  86.3907 278.8804 0002327  92.4084  11.3484 14.34217218    11
IRIDIUM 144             
1 43249C 18030A   26271.71562500  .00001088  00000+0  38889-3 0  2716
2 43249  86.3930 247.0894 0002275  89.8882   4.7777 14.34214669    19
IRIDIUM 149             
1 43250C 18030B   26271.59131944 -.00002214  00000+0 -79167-3 0  2716
2 43250  86.3928 247.1073 0002379  87.2461  53.2800 14.34219086    12
IRIDIUM 157             
1 43251C 18030C   26271.67743056  .00000712  00000+0  25464-3 0  2719
2 43251  86.3930 247.1267 0002283  87.9944  38.6767 14.34215897    13
IRIDIUM 140             
1 43252C 18030D   26271.76006944  .00003236  00000+0  11572-2 0  2716
2 43252  86.3931 247.1045 0002332  87.9389   6.9677 14.34213170    17
IRIDIUM 145             
1 43253C 18030E   26271.74687500  .00002927  00000+0  10466-2 0  2715
2 43253  86.3930 247.0821 0002024  90.3348   1.9416 14.34213505    17
IRIDIUM 146             
1 43254C 18030F   26271.66493056 -.00000047  00000+0 -16929-4 0  2713
2 43254  86.3929 247.1281 0002207  89.2330  38.3944 14.34216061    18
IRIDIUM 148             
1 43255C 18030G   26271.55868056 -.00001956  00000+0 -69941-3 0  2719
2 43255  86.3931 247.2174 0002381  90.8100  12.2145 14.34220864    10
IRIDIUM 142             
1 43256C 18030H   26271.67118056  .00000385  00000+0  13777-3 0  2710
2 43256  86.3928 247.0555 0002161  90.5900  36.5580 14.34215705    19
IRIDIUM 150             
1 43257C 18030J   26271.57256944 -.00002521  00000+0 -90143-3 0  2717
2 43257  86.3931 247.2164 0002309  88.1535  53.7996 14.34219983    17
IRIDIUM 143             
1 43258C 18030K   26271.61979167 -.00001842  00000+0 -65874-3 0  2710
2 43258  86.3934 247.2933 0002203  87.9404  35.8693 14.34218505    14
IRIDIUM 161             
1 43478C 18047C   26271.70243056  .00002701  00000+0  80426-3 0  2716
2 43478  86.4494  45.1526 0002366  96.0977  20.8647 14.43276755    13
IRIDIUM 152             
1 43479C 18047D   26271.73020833  .00003553  00000+0  12703-2 0  2714
2 43479  86.3970  45.0035 0002231  93.8443  20.4789 14.34213025    14
IRIDIUM 147             
1 43480C 18047E   26271.73645833  .00003601  00000+0  12876-2 0  2714
2 43480  86.3972  45.0078 0002091  96.1437  17.6055 14.34215792    15
IRIDIUM 110             
1 43481C 18047F   26271.74270833  .00003683  00000+0  13170-2 0  2718
2 43481  86.3974  45.0998 0002413  94.9566  18.4078 14.34212607    12
IRIDIUM 162             
1 43482C 18047G   26271.76423611  .00004378  00000+0  13036-2 0  2718
2 43482  86.4494  45.0167 0002186  93.6889  16.8960 14.43274882    15
IRIDIUM 160             
1 43569C 18061A   26271.71423611  .00004958  00000+0  17729-2 0  2712
2 43569  86.4028  13.5092 0002214  98.0905 147.8419 14.34212556    15
IRIDIUM 166             
1 43570C 18061B   26271.74201389  .00003230  00000+0  11550-2 0  2711
2 43570  86.4026  13.4466 0002159  97.7038 160.6461 14.34215076    10
IRIDIUM 158             
1 43571C 18061C   26271.70868056  .00004874  00000+0  17426-2 0  2711
2 43571  86.4027  13.4706 0002170  95.0267 154.9614 14.34212699    11
IRIDIUM 165             
1 43572C 18061D   26271.73576389  .00003906  00000+0  13967-2 0  2711
2 43572  86.4028  13.5076 0002149  96.8764 161.9515 14.34214128    18
IRIDIUM 155             
1 43573C 18061E   26271.69756944  .00004162  00000+0  14881-2 0  2715
2 43573  86.4024  13.3876 0002074  95.4931 162.6206 14.34213472    15
IRIDIUM 154             
1 43574C 18061F   26271.74826389  .00003294  00000+0  11777-2 0  2719
2 43574  86.4028  13.5050 0002127  97.7610 160.1114 14.34215401    19
IRIDIUM 163             
1 43575C 18061G   26271.72951389  .00004306  00000+0  15395-2 0  2712
2 43575  86.4025  13.4248 0002277  95.9709 163.3336 14.34213679    16
IRIDIUM 156             
1 43576C 18061H   26271.70381944  .00004632  00000+0  16563-2 0  2715
2 43576  86.4026  13.4431 0002052  94.6447 162.9908 14.34212950    19
IRIDIUM 164             
1 43577C 18061J   26271.75451389  .00003120  00000+0  11155-2 0  2715
2 43577  86.4027  13.4638 0002092  99.0835 158.3094 14.34215469    17
IRIDIUM 159             
1 43578C 18061K   26271.72256944  .00004700  00000+0  16804-2 0  2714
2 43578  86.4025  13.4119 0002283  96.0222 160.1779 14.34213253    19
IRIDIUM 180             
1 43922C 19002A   26271.76909722 -.00002107  00000+0 -75332-3 0  2719
2 43922  86.3949 310.3201 0002293  95.5384  43.3392 14.34219133    17
IRIDIUM 176             
1 43923C 19002B   26271.76701389 -.00002327  00000+0 -36961-3 0  2718
2 43923  86.6070 310.2499 0002463  94.8587  38.9226 14.72259995    18
IRIDIUM 168             
1 43924C 19002C   26271.76284722 -.00002411  00000+0 -86198-3 0  2717
2 43924  86.3952 310.4029 0002311  95.2007  44.1557 14.34219581    11
IRIDIUM 173             
1 43925C 19002D   26271.75034722 -.00002581  00000+0 -92284-3 0  2711
2 43925  86.3948 310.2926 0002311  94.1686  46.1408 14.34220736    13
IRIDIUM 169             
1 43926C 19002E   26271.58784722  .00004431  00000+0  14508-2 0  2711
2 43926  86.4271 341.9920 0002091  87.4278 147.0928 14.38605640    19
IRIDIUM 172             
1 43927C 19002F   26271.74409722 -.00002437  00000+0 -87134-3 0  2716
2 43927  86.3949 310.3036 0002361  94.9565  45.8324 14.34220644    19
IRIDIUM 175             
1 43928C 19002G   26271.64756944 -.00001176  00000+0 -34744-3 0  2715
2 43928  86.4484 247.2484 0001575 195.4243 293.5490 14.43649118    13
IRIDIUM 171             
1 43929C 19002H   26271.72465278 -.00001486  00000+0 -53120-3 0  2715
2 43929  86.3959 310.6296 0002157  95.8290  42.8093 14.34219497    15
IRIDIUM 170             
1 43930C 19002J   26271.76423611 -.00009798  00000+0 -15564-2 0  2719
2 43930  86.6069 310.2526 0002501  93.8552 352.5846 14.72259415    19
IRIDIUM 167             
1 43931C 19002K   26271.71840278 -.00001448  00000+0 -51758-3 0  2717
2 43931  86.3949 310.3376 0002011  94.1276  44.9902 14.34219180    19
IRIDIUM 181             
1 56726C 23068S   26271.73368056 -.00001690  00000+0 -50293-3 0  2713
2 56726  86.4563  13.5048 0002339  99.8704 155.3348 14.43310882    19
IRIDIUM 177             
1 56727C 23068T   26271.70451389 -.00001502  00000+0 -21288-3 0  2717
2 56727  86.1906 279.6939 0002596  89.2845  40.2294 14.77170808    17
IRIDIUM 174             
1 56728C 23068U   26271.76076389 -.00010589  00000+0 -16820-2 0  2717
2 56728  86.6078 310.4119 0002577  91.0594  42.4364 14.72262015    17
IRIDIUM 178             
1 56729C 23068V   26271.77256944 -.00001426  00000+0 -18886-3 0  2711
2 56729  86.6583 342.1107 0002557  94.0324   2.4158 14.80053339    13
IRIDIUM 179             
1 56730C 23068W   26271.77187500  .00000678  00000+0  89720-4 0  2716
2 56730  86.6833 351.3931 0002402  93.1615  28.0699 14.80050187    14
